{
  "norad_id": 69015,
  "name": "CAS500-2 RIDESHARE OBJECT AM",
  "history": [
    {
      "epoch": "2026-05-09T15:34:11.163648Z",
      "apogee_km": 508.5897059760473,
      "perigee_km": 496.6240923354153,
      "latitude_deg": 2.3001864290327863e-05,
      "longitude_deg": -72.84961209193756,
      "height_km": 511.47103158539096,
      "semi_major_axis_km": 6880.743899155731,
      "eccentricity": 0.0008695,
      "inclination_deg": 97.4035,
      "raan_deg": 28.1602,
      "arg_perigee_deg": 164.845,
      "mean_anomaly_deg": 195.3048,
      "mean_motion_rev_day": 15.21071648
    }
  ]
}