CAS500-2 RIDESHARE OBJE*
1 69015U 26100AM  26129.64874033  .00006310  00000+0  28678-3 0  9998
2 69015  97.4035  28.1602 0008694 164.8450 195.3048 15.21071648   965
